ONEWEB-0176             
1 48210U 21031A   25249.25966146  .00000250  00000+0  63884-3 0  9991
2 48210  87.9086 346.2248 0001656 101.4520 258.6796 13.14503159211015
ONEWEB-0184             
1 48211U 21031B   25249.23269250 -.00000043  00000+0 -14920-3 0  9991
2 48211  87.9098 346.2013 0000933 106.0976 254.0257 13.14502797210986
ONEWEB-0179             
1 48212U 21031C   25249.27946535 -.00000710  00000+0 -19496-2 0  9997
2 48212  87.9089 346.2084 0001835  99.3860 260.7478 13.14504263211039
ONEWEB-0180             
1 48213U 21031D   25249.23586999 -.00000057  00000+0 -18784-3 0  9992
2 48213  87.9098 346.2062 0001747 109.8859 250.2460 13.14503453210914
ONEWEB-0218             
1 48214U 21031E   25249.25806899 -.00001214  00000+0 -33102-2 0  9995
2 48214  87.9098 346.2026 0001026 127.5295 232.5928 13.14509342211079
ONEWEB-0209             
1 48215U 21031F   25249.24698410 -.00000471  00000+0 -13052-2 0  9999
2 48215  87.9097 346.2497 0001714 110.1287 250.0027 13.14495221211079
ONEWEB-0198             
1 48216U 21031G   25249.23116196 -.00002457  00000+0 -66663-2 0  9997
2 48216  87.9089 346.2518 0001553 114.9450 245.1841 13.14477253211186
ONEWEB-0189             
1 48217U 21031H   25249.24379534  .00000140  00000+0  34190-3 0  9992
2 48217  87.9085 346.2225 0001593 111.8571 248.2729 13.14503872210929
